CENTISPACE-1 S5         
1 54020U 22126A   26117.52299368  .00001000  00000+0  23048-3 0  9995
2 54020  54.9998  55.6852 0011001 324.8533  35.1734 14.62915686189626
CENTISPACE-1 S6         
1 54021U 22126B   26117.49142032  .00000721  00000+0  17911-3 0  9998
2 54021  55.0000  57.4447 0012849 323.9732  36.0394 14.62211175189584
OTB-3-GAZELLE           
1 54023U 22127A   26117.42958002  .00000165  00000+0  62510-4 0  9994
2 54023  98.3937 109.9112 0012841 347.4847  12.6023 14.42655533187043
ASO-S                   
1 54029U 22129A   26117.46803699  .00000232  00000+0  68470-4 0  9993
2 54029  98.2770 123.2737 0013069 246.4812 113.5010 14.52037221188067
HJ-2E                   
1 54035U 22132A   26117.52709071  .00008818  00000+0  39184-3 0  9997
2 54035  97.3814 122.8454 0020713 181.4770 178.6409 15.21562910196719
COSMOS 2561             
1 54109U 22137A   26117.51716097  .00015900  00000+0  28057-3 0  9996
2 54109  96.9243 178.4427 0009205 202.0048 158.0811 15.50409976198490
GONETS-M 23             
1 54150U 22139A   26117.46922964  .00000011  00000+0  11116-4 0  9996
2 54150  82.5112  19.8107 0021372 335.2745  24.7308 12.42888476159342
GONETS-M 24             
1 54151U 22139B   26117.52285802  .00000017  00000+0  52365-4 0  9994
2 54151  82.5029  18.8721 0016806 346.4959  13.5669 12.42889037159359
GONETS-M 25             
1 54152U 22139C   26117.50920267  .00000019  00000+0  68617-4 0  9993
2 54152  82.5094  19.5395 0020683 344.2261  15.8172 12.42888564159355
SKIF-D                  
1 54153U 22139D   26115.89403056  .00000041  00000+0  00000+0 0  9998
2 54153  89.9562  96.6846 0007398 220.6212 139.3630  5.00437823 61497
MATS                    
1 54227U 22147A   26117.25940517  .00004325  00000+0  30840-3 0  9997
2 54227  97.6837 119.0897 0013170  22.3164 337.8633 15.05031548190103
JILIN-1 GAOFEN 03D54    
1 54254U 22155D   26117.44602291  .00145940  00000+0  82347-3 0  9999
2 54254  97.6068 264.7309 0003873 184.3560 175.7673 15.78736059192253
EOS-6 (OCEANSAT-3)      
1 54361U 22158A   26117.54586014  .00000296  00000+0  93358-4 0  9995
2 54361  98.3504 216.4204 0002323 105.7348 254.4101 14.46980228180513
DONGPO 09               
1 54685U 22167D   26117.52281286  .00013607  00000+0  40035-3 0  9998
2 54685  97.6860 286.3254 0001221 328.4275  31.6894 15.35208182187678
DONGPO 08               
1 54686U 22167E   26117.54720927  .00011210  00000+0  35767-3 0  9995
2 54686  97.6819 283.7644 0007816 356.5313   3.5872 15.32655325187562
2022-167F               
1 54687U 22167F   26116.97379795  .00120655  00000+0  72473-3 0  9994
2 54687  97.6189 299.2242 0003296 211.0840 149.0230 15.77401037188728
DONGPO 10               
1 54689U 22167H   26117.51460773  .00012124  00000+0  37770-3 0  9996
2 54689  97.6904 285.5630 0003747 299.1983  60.8883 15.33418483187593
