[{"OBJECT_NAME":"CENTISPACE-1 S5","OBJECT_ID":"2022-126A","EPOCH":"2026-04-27T12:33:06.653952","MEAN_MOTION":14.62915686,"ECCENTRICITY":0.0011001,"INCLINATION":54.9998,"RA_OF_ASC_NODE":55.6852,"ARG_OF_PERICENTER":324.8533,"MEAN_ANOMALY":35.1734,"EPHEMERIS_TYPE":0,"CLASSIFICATION_TYPE":"U","NORAD_CAT_ID":54020,"ELEMENT_SET_NO":999,"REV_AT_EPOCH":18962,"BSTAR":0.00023048,"MEAN_MOTION_DOT":1.0e-5,"MEAN_MOTION_DDOT":0},{"OBJECT_NAME":"CENTISPACE-1 S6","OBJECT_ID":"2022-126B","EPOCH":"2026-04-27T11:47:38.715648","MEAN_MOTION":14.62211175,"ECCENTRICITY":0.0012849,"INCLINATION":55,"RA_OF_ASC_NODE":57.4447,"ARG_OF_PERICENTER":323.9732,"MEAN_ANOMALY":36.0394,"EPHEMERIS_TYPE":0,"CLASSIFICATION_TYPE":"U","NORAD_CAT_ID":54021,"ELEMENT_SET_NO":999,"REV_AT_EPOCH":18958,"BSTAR":0.00017911,"MEAN_MOTION_DOT":7.21e-6,"MEAN_MOTION_DDOT":0},{"OBJECT_NAME":"OTB-3-GAZELLE","OBJECT_ID":"2022-127A","EPOCH":"2026-04-27T10:18:35.713728","MEAN_MOTION":14.42655533,"ECCENTRICITY":0.0012841,"INCLINATION":98.3937,"RA_OF_ASC_NODE":109.9112,"ARG_OF_PERICENTER":347.4847,"MEAN_ANOMALY":12.6023,"EPHEMERIS_TYPE":0,"CLASSIFICATION_TYPE":"U","NORAD_CAT_ID":54023,"ELEMENT_SET_NO":999,"REV_AT_EPOCH":18704,"BSTAR":6.251e-5,"MEAN_MOTION_DOT":1.65e-6,"MEAN_MOTION_DDOT":0},{"OBJECT_NAME":"ASO-S","OBJECT_ID":"2022-129A","EPOCH":"2026-04-27T11:13:58.395936","MEAN_MOTION":14.52037221,"ECCENTRICITY":0.0013069,"INCLINATION":98.277,"RA_OF_ASC_NODE":123.2737,"ARG_OF_PERICENTER":246.4812,"MEAN_ANOMALY":113.501,"EPHEMERIS_TYPE":0,"CLASSIFICATION_TYPE":"U","NORAD_CAT_ID":54029,"ELEMENT_SET_NO":999,"REV_AT_EPOCH":18806,"BSTAR":6.847e-5,"MEAN_MOTION_DOT":2.32e-6,"MEAN_MOTION_DDOT":0},{"OBJECT_NAME":"HJ-2E","OBJECT_ID":"2022-132A","EPOCH":"2026-04-27T12:39:00.637344","MEAN_MOTION":15.2156291,"ECCENTRICITY":0.0020713,"INCLINATION":97.3814,"RA_OF_ASC_NODE":122.8454,"ARG_OF_PERICENTER":181.477,"MEAN_ANOMALY":178.6409,"EPHEMERIS_TYPE":0,"CLASSIFICATION_TYPE":"U","NORAD_CAT_ID":54035,"ELEMENT_SET_NO":999,"REV_AT_EPOCH":19671,"BSTAR":0.00039184,"MEAN_MOTION_DOT":8.818e-5,"MEAN_MOTION_DDOT":0},{"OBJECT_NAME":"COSMOS 2561","OBJECT_ID":"2022-137A","EPOCH":"2026-04-27T12:24:42.707808","MEAN_MOTION":15.50409976,"ECCENTRICITY":0.0009205,"INCLINATION":96.9243,"RA_OF_ASC_NODE":178.4427,"ARG_OF_PERICENTER":202.0048,"MEAN_ANOMALY":158.0811,"EPHEMERIS_TYPE":0,"CLASSIFICATION_TYPE":"U","NORAD_CAT_ID":54109,"ELEMENT_SET_NO":999,"REV_AT_EPOCH":19849,"BSTAR":0.00028057,"MEAN_MOTION_DOT":0.000159,"MEAN_MOTION_DDOT":0},{"OBJECT_NAME":"GONETS-M 23","OBJECT_ID":"2022-139A","EPOCH":"2026-04-27T11:15:41.440896","MEAN_MOTION":12.42888476,"ECCENTRICITY":0.0021372,"INCLINATION":82.5112,"RA_OF_ASC_NODE":19.8107,"ARG_OF_PERICENTER":335.2745,"MEAN_ANOMALY":24.7308,"EPHEMERIS_TYPE":0,"CLASSIFICATION_TYPE":"U","NORAD_CAT_ID":54150,"ELEMENT_SET_NO":999,"REV_AT_EPOCH":15934,"BSTAR":1.1116e-5,"MEAN_MOTION_DOT":1.1e-7,"MEAN_MOTION_DDOT":0},{"OBJECT_NAME":"GONETS-M 24","OBJECT_ID":"2022-139B","EPOCH":"2026-04-27T12:32:54.932928","MEAN_MOTION":12.42889037,"ECCENTRICITY":0.0016806,"INCLINATION":82.5029,"RA_OF_ASC_NODE":18.8721,"ARG_OF_PERICENTER":346.4959,"MEAN_ANOMALY":13.5669,"EPHEMERIS_TYPE":0,"CLASSIFICATION_TYPE":"U","NORAD_CAT_ID":54151,"ELEMENT_SET_NO":999,"REV_AT_EPOCH":15935,"BSTAR":5.2365e-5,"MEAN_MOTION_DOT":1.7e-7,"MEAN_MOTION_DDOT":0},{"OBJECT_NAME":"GONETS-M 25","OBJECT_ID":"2022-139C","EPOCH":"2026-04-27T12:13:15.110688","MEAN_MOTION":12.42888564,"ECCENTRICITY":0.0020683,"INCLINATION":82.5094,"RA_OF_ASC_NODE":19.5395,"ARG_OF_PERICENTER":344.2261,"MEAN_ANOMALY":15.8172,"EPHEMERIS_TYPE":0,"CLASSIFICATION_TYPE":"U","NORAD_CAT_ID":54152,"ELEMENT_SET_NO":999,"REV_AT_EPOCH":15935,"BSTAR":6.8617e-5,"MEAN_MOTION_DOT":1.9e-7,"MEAN_MOTION_DDOT":0},{"OBJECT_NAME":"SKIF-D","OBJECT_ID":"2022-139D","EPOCH":"2026-04-25T21:27:24.240384","MEAN_MOTION":5.00437823,"ECCENTRICITY":0.00073983,"INCLINATION":89.9562,"RA_OF_ASC_NODE":96.6846,"ARG_OF_PERICENTER":220.6212,"MEAN_ANOMALY":139.363,"EPHEMERIS_TYPE":0,"CLASSIFICATION_TYPE":"U","NORAD_CAT_ID":54153,"ELEMENT_SET_NO":999,"REV_AT_EPOCH":6149,"BSTAR":0,"MEAN_MOTION_DOT":4.1e-7,"MEAN_MOTION_DDOT":0},{"OBJECT_NAME":"MATS","OBJECT_ID":"2022-147A","EPOCH":"2026-04-27T06:13:32.606688","MEAN_MOTION":15.05031548,"ECCENTRICITY":0.001317,"INCLINATION":97.6837,"RA_OF_ASC_NODE":119.0897,"ARG_OF_PERICENTER":22.3164,"MEAN_ANOMALY":337.8633,"EPHEMERIS_TYPE":0,"CLASSIFICATION_TYPE":"U","NORAD_CAT_ID":54227,"ELEMENT_SET_NO":999,"REV_AT_EPOCH":19010,"BSTAR":0.0003084,"MEAN_MOTION_DOT":4.325e-5,"MEAN_MOTION_DDOT":0},{"OBJECT_NAME":"JILIN-1 GAOFEN 03D54","OBJECT_ID":"2022-155D","EPOCH":"2026-04-27T10:42:16.379424","MEAN_MOTION":15.78736059,"ECCENTRICITY":0.0003873,"INCLINATION":97.6068,"RA_OF_ASC_NODE":264.7309,"ARG_OF_PERICENTER":184.356,"MEAN_ANOMALY":175.7673,"EPHEMERIS_TYPE":0,"CLASSIFICATION_TYPE":"U","NORAD_CAT_ID":54254,"ELEMENT_SET_NO":999,"REV_AT_EPOCH":19225,"BSTAR":0.00082347,"MEAN_MOTION_DOT":0.0014594,"MEAN_MOTION_DDOT":0},{"OBJECT_NAME":"EOS-6 (OCEANSAT-3)","OBJECT_ID":"2022-158A","EPOCH":"2026-04-27T13:06:02.316096","MEAN_MOTION":14.46980228,"ECCENTRICITY":0.0002323,"INCLINATION":98.3504,"RA_OF_ASC_NODE":216.4204,"ARG_OF_PERICENTER":105.7348,"MEAN_ANOMALY":254.4101,"EPHEMERIS_TYPE":0,"CLASSIFICATION_TYPE":"U","NORAD_CAT_ID":54361,"ELEMENT_SET_NO":999,"REV_AT_EPOCH":18051,"BSTAR":9.3358e-5,"MEAN_MOTION_DOT":2.96e-6,"MEAN_MOTION_DDOT":0},{"OBJECT_NAME":"DONGPO 09","OBJECT_ID":"2022-167D","EPOCH":"2026-04-27T12:32:51.031104","MEAN_MOTION":15.35208182,"ECCENTRICITY":0.0001221,"INCLINATION":97.686,"RA_OF_ASC_NODE":286.3254,"ARG_OF_PERICENTER":328.4275,"MEAN_ANOMALY":31.6894,"EPHEMERIS_TYPE":0,"CLASSIFICATION_TYPE":"U","NORAD_CAT_ID":54685,"ELEMENT_SET_NO":999,"REV_AT_EPOCH":18767,"BSTAR":0.00040035,"MEAN_MOTION_DOT":0.00013607,"MEAN_MOTION_DDOT":0},{"OBJECT_NAME":"DONGPO 08","OBJECT_ID":"2022-167E","EPOCH":"2026-04-27T13:07:58.880928","MEAN_MOTION":15.32655325,"ECCENTRICITY":0.0007816,"INCLINATION":97.6819,"RA_OF_ASC_NODE":283.7644,"ARG_OF_PERICENTER":356.5313,"MEAN_ANOMALY":3.5872,"EPHEMERIS_TYPE":0,"CLASSIFICATION_TYPE":"U","NORAD_CAT_ID":54686,"ELEMENT_SET_NO":999,"REV_AT_EPOCH":18756,"BSTAR":0.00035767,"MEAN_MOTION_DOT":0.0001121,"MEAN_MOTION_DDOT":0},{"OBJECT_NAME":"2022-167F","OBJECT_ID":"2022-167F","EPOCH":"2026-04-26T23:22:16.142880","MEAN_MOTION":15.77401037,"ECCENTRICITY":0.00032961,"INCLINATION":97.6189,"RA_OF_ASC_NODE":299.2242,"ARG_OF_PERICENTER":211.084,"MEAN_ANOMALY":149.023,"EPHEMERIS_TYPE":0,"CLASSIFICATION_TYPE":"U","NORAD_CAT_ID":54687,"ELEMENT_SET_NO":999,"REV_AT_EPOCH":18872,"BSTAR":0.00072473029,"MEAN_MOTION_DOT":0.00120655,"MEAN_MOTION_DDOT":0},{"OBJECT_NAME":"DONGPO 10","OBJECT_ID":"2022-167H","EPOCH":"2026-04-27T12:21:02.107872","MEAN_MOTION":15.33418483,"ECCENTRICITY":0.0003747,"INCLINATION":97.6904,"RA_OF_ASC_NODE":285.563,"ARG_OF_PERICENTER":299.1983,"MEAN_ANOMALY":60.8883,"EPHEMERIS_TYPE":0,"CLASSIFICATION_TYPE":"U","NORAD_CAT_ID":54689,"ELEMENT_SET_NO":999,"REV_AT_EPOCH":18759,"BSTAR":0.0003777,"MEAN_MOTION_DOT":0.00012124,"MEAN_MOTION_DDOT":0}]
